NORAD_CAT_ID,OBJECT_NAME,OBJECT_TYPE,EPOCH,MEAN_MOTION,ECCENTRICITY,INCLINATION,RA_OF_ASC_NODE,ARG_OF_PERICENTER,MEAN_ANOMALY,BSTAR,MEAN_MOTION_DOT,MEAN_MOTION_DDOT,TLE_LINE0,TLE_LINE1,TLE_LINE2,SEMIMAJOR_AXIS,PERIOD,APOGEE,PERIGEE,DECAYED
51804.0,STARLINK-3601,PAYLOAD,2023-12-02 13:18:38,15.08866855,0.0001681,53.2167,86.762,118.9619,241.1542,0.0004451,6.808e-05,0.0,0 STARLINK-3601,1 51804U 22017AN  23336.55460793  .00006808  00000-0  44510-3 0  9995,2 51804  53.2167  86.7620 0001681 118.9619 241.1542 15.08866855 99137,6917.798,95.436,540.826,538.5,0.0
51804.0,STARLINK-3601,PAYLOAD,2023-12-02 14:54:01,15.08868018,0.0001443,53.2168,86.4638,80.8094,279.3061,0.00035866,5.429e-05,0.0,0 STARLINK-3601,1 51804U 22017AN  23336.62084638  .00005429  00000-0  35866-3 0  9995,2 51804  53.2168  86.4638 0001443  80.8094 279.3061 15.08868018 99147,6917.795,95.436,540.658,538.662,0.0
51804.0,STARLINK-3601,PAYLOAD,2023-12-03 11:34:04,15.08808517,0.0001577,53.2169,82.5952,98.0801,262.037,-0.00040038,-6.649e-05,0.0,0 STARLINK-3601,1 51804U 22017AN  23337.48200091 -.00006649  00000-0 -40038-3 0  9997,2 51804  53.2169  82.5952 0001577  98.0801 262.0370 15.08808517 99374,6917.977,95.44,540.933,538.751,0.0
51804.0,STARLINK-3601,PAYLOAD,2023-12-03 13:09:28,15.08804627,0.0001867,53.2165,82.294,130.4141,229.7015,-0.00049585,-8.163e-05,0.0,0 STARLINK-3601,1 51804U 22017AN  23337.54824160 -.00008163  00000-0 -49585-3 0  9992,2 51804  53.2165  82.2940 0001867 130.4141 229.7015 15.08804627 99288,6917.989,95.44,541.145,538.562,0.0
51804.0,STARLINK-3601,PAYLOAD,2023-12-03 16:20:15,15.08796752,0.000147,53.2168,81.7042,113.4982,246.6164,-0.00055852,-9.155e-05,0.0,0 STARLINK-3601,1 51804U 22017AN  23337.68072943 -.00009155  00000-0 -55852-3 0  9997,2 51804  53.2168  81.7042 0001470 113.4982 246.6164 15.08796752 99408,6918.013,95.44,540.895,538.861,0.0
51804.0,STARLINK-3601,PAYLOAD,2023-12-04 11:24:51,15.08842228,0.0001166,53.2158,78.1439,76.217,283.8952,3.6651e-05,2.96e-06,0.0,0 STARLINK-3601,1 51804U 22017AN  23338.47559607  .00000296  00000-0  36651-4 0  9994,2 51804  53.2158  78.1439 0001166  76.2170 283.8952 15.08842228 99525,6917.874,95.437,540.545,538.932,0.0
51804.0,STARLINK-3601,PAYLOAD,2023-12-04 13:00:14,15.08852669,0.000152,53.2167,77.8427,70.4429,289.6727,0.00023786,3.501e-05,0.0,0 STARLINK-3601,1 51804U 22017AN  23338.54183271  .00003501  00000-0  23786-3 0  9998,2 51804  53.2167  77.8427 0001520  70.4429 289.6727 15.08852669 99439,6917.842,95.437,540.758,538.655,0.0
51804.0,STARLINK-3601,PAYLOAD,2023-12-05 11:15:39,15.08840161,0.0001265,53.2153,73.6791,107.2481,252.8649,0.00053718,8.272e-05,0.0,0 STARLINK-3601,1 51804U 22017AN  23339.46920333  .00008272  00000-0  53718-3 0  9996,2 51804  53.2153  73.6791 0001265 107.2481 252.8649 15.08840161 99670,6917.88,95.438,540.62,538.87,0.0
51804.0,STARLINK-3601,PAYLOAD,2023-12-05 12:51:02,15.08832157,0.000125,53.2164,73.3833,88.3995,271.7141,0.00046634,7.14e-05,0.0,0 STARLINK-3601,1 51804U 22017AN  23339.53543984  .00007140  00000-0  46634-3 0  9999,2 51804  53.2164  73.3833 0001250  88.3995 271.7141 15.08832157 99582,6917.904,95.438,540.634,538.905,0.0
51804.0,STARLINK-3601,PAYLOAD,2023-12-06 11:06:25,15.08848107,0.0001238,53.2175,69.2194,87.3745,272.7389,-5.858e-05,-1.22e-05,0.0,0 STARLINK-3601,1 51804U 22017AN  23340.46280001 -.00001220  00000-0 -58580-4 0  9990,2 51804  53.2175  69.2194 0001238  87.3745 272.7389 15.08848107 99820,6917.856,95.437,540.577,538.864,0.0
51804.0,STARLINK-3601,PAYLOAD,2023-12-06 12:41:48,15.08861191,9.69e-05,53.2185,68.9226,82.8409,277.2693,-0.00017655,-3.098e-05,0.0,0 STARLINK-3601,1 51804U 22017AN  23340.52903319 -.00003098  00000-0 -17655-3 0  9993,2 51804  53.2185  68.9226 0000969  82.8409 277.2693 15.08861191 99736,6917.816,95.436,540.351,539.01,0.0
51804.0,STARLINK-3601,PAYLOAD,2023-12-07 10:57:12,15.08842412,0.0001392,53.2188,64.7603,74.2848,285.8297,-3.9704e-05,-9.2e-06,0.0,0 STARLINK-3601,1 51804U 22017AN  23341.45639901 -.00000920  00000-0 -39704-4 0  9990,2 51804  53.2188  64.7603 0001392  74.2848 285.8297 15.08842412 99971,6917.873,95.437,540.701,538.775,0.0
51804.0,STARLINK-3601,PAYLOAD,2023-12-07 12:32:35,15.08843364,0.0001357,53.2187,64.4621,81.1089,279.0056,-4.1161e-05,-9.43e-06,0.0,0 STARLINK-3601,1 51804U 22017AN  23341.52263795 -.00000943  00000-0 -41161-4 0  9997,2 51804  53.2187  64.4621 0001357  81.1089 279.0056 15.08843364 99887,6917.87,95.437,540.674,538.796,0.0
51804.0,STARLINK-3601,PAYLOAD,2023-12-08 12:23:22,15.08839168,0.0001351,53.2185,60.002,98.4641,261.6504,6.158e-05,6.92e-06,0.0,0 STARLINK-3601,1 51804U 22017AN  23342.51623699  .00000692  00000-0  61580-4 0  9996,2 51804  53.2185  60.0020 0001351  98.4641 261.6504 15.08839168100132,6917.883,95.438,540.683,538.813,0.0
51804.0,STARLINK-3601,PAYLOAD,2023-12-09 10:38:47,15.08835038,0.0001349,53.2183,55.837,96.6565,263.458,3.1993e-05,2.21e-06,0.0,0 STARLINK-3601,1 51804U 22017AN  23343.44360235  .00000221  00000-0  31993-4 0  9996,2 51804  53.2183  55.8370 0001349  96.6565 263.4580 15.08835038100273,6917.896,95.438,540.694,538.827,0.0
51804.0,STARLINK-3601,PAYLOAD,2023-12-09 17:00:19,15.08839892,0.0001336,53.2183,54.6471,94.9072,265.2072,6.3964e-05,7.3e-06,0.0,0 STARLINK-3601,1 51804U 22017AN  23343.70855851  .00000730  00000-0  63964-4 0  9996,2 51804  53.2183  54.6471 0001336  94.9072 265.2072 15.08839892100214,6917.881,95.438,540.67,538.821,0.0
51804.0,STARLINK-3601,PAYLOAD,2023-12-10 12:04:58,15.0881072,0.000142,53.2186,51.0831,97.7223,262.393,0.00029403,4.391e-05,0.0,0 STARLINK-3601,1 51804U 22017AN  23344.50345151  .00004391  00000-0  29403-3 0  9998,2 51804  53.2186  51.0831 0001420  97.7223 262.3930 15.08810720100435,6917.97,95.439,540.817,538.853,0.0
51804.0,STARLINK-3601,PAYLOAD,2023-12-11 11:55:44,15.08846583,0.0001288,53.2183,46.6218,82.7239,277.39,9.1538e-05,1.169e-05,0.0,0 STARLINK-3601,1 51804U 22017AN  23345.49703713  .00001169  00000-0  91538-4 0  9998,2 51804  53.2183  46.6218 0001288  82.7239 277.3900 15.08846583100589,6917.86,95.437,540.616,538.834,0.0
51804.0,STARLINK-3601,PAYLOAD,2023-12-12 10:11:08,15.08841071,0.0001689,53.2187,42.4545,65.491,294.6259,3.0759e-05,2.02e-06,0.0,0 STARLINK-3601,1 51804U 22017AN  23346.42440397  .00000202  00000-0  30759-4 0  9993,2 51804  53.2187  42.4545 0001689  65.4910 294.6259 15.08841071100721,6917.877,95.437,540.911,538.574,0.0
51804.0,STARLINK-3601,PAYLOAD,2023-12-13 10:01:54,15.08850733,0.0002004,53.2197,37.9954,54.2197,305.8982,8.9641e-05,1.139e-05,0.0,0 STARLINK-3601,1 51804U 22017AN  23347.41799670  .00001139  00000-0  89641-4 0  9998,2 51804  53.2197  37.9954 0002004  54.2197 305.8982 15.08850733100879,6917.848,95.437,541.099,538.326,0.0
51804.0,STARLINK-3601,PAYLOAD,2023-12-13 22:45:00,15.08838985,0.0001231,53.2196,35.6188,77.6728,282.4402,1.7483e-05,-1e-07,0.0,0 STARLINK-3601,1 51804U 22017AN  23347.94792181 -.00000010  00000-0  17483-4 0  9999,2 51804  53.2196  35.6188 0001231  77.6728 282.4402 15.08838985100953,6917.883,95.438,540.6,538.897,0.0
51804.0,STARLINK-3601,PAYLOAD,2023-12-14 09:52:42,15.08840582,0.000166,53.2194,33.539,102.1943,257.9235,3.659e-05,2.94e-06,0.0,0 STARLINK-3601,1 51804U 22017AN  23348.41160001  .00000294  00000-0  36590-4 0  9995,2 51804  53.2194  33.5390 0001660 102.1943 257.9235 15.08840582100926,6917.879,95.438,540.892,538.595,0.0
51804.0,STARLINK-3601,PAYLOAD,2023-12-15 09:43:30,15.08835453,0.000177,53.218,29.0753,64.3448,295.7727,-8.3621e-05,-1.619e-05,0.0,0 STARLINK-3601,1 51804U 22017AN  23349.40521115 -.00001619  00000-0 -83621-4 0  9993,2 51804  53.2180  29.0753 0001770  64.3448 295.7727 15.08835453101170,6917.894,95.438,540.984,538.535,0.0
51804.0,STARLINK-3601,PAYLOAD,2023-12-16 07:58:53,15.0883949,0.0001623,53.2181,24.9123,99.0393,261.0783,6.6214e-05,7.66e-06,0.0,0 STARLINK-3601,1 51804U 22017AN  23350.33256421  .00000766  00000-0  66214-4 0  9991,2 51804  53.2181  24.9123 0001623  99.0393 261.0783 15.08839490101316,6917.882,95.438,540.87,538.624,0.0
51804.0,STARLINK-3601,PAYLOAD,2023-12-16 22:17:22,15.08831174,0.0001646,53.2184,22.2375,98.1053,262.0126,9.3283e-05,1.197e-05,0.0,0 STARLINK-3601,1 51804U 22017AN  23350.92872954  .00001197  00000-0  93283-4 0  9996,2 51804  53.2184  22.2375 0001646  98.1053 262.0126 15.08831174101400,6917.907,95.438,540.911,538.634,0.0
51804.0,STARLINK-3601,PAYLOAD,2023-12-17 07:49:41,15.08830933,0.0001645,53.2184,20.4529,100.5492,259.5686,8.0806e-05,9.98e-06,0.0,0 STARLINK-3601,1 51804U 22017AN  23351.32617253  .00000998  00000-0  80806-4 0  9995,2 51804  53.2184  20.4529 0001645 100.5492 259.5686 15.08830933101364,6917.908,95.438,540.911,538.635,0.0
51804.0,STARLINK-3601,PAYLOAD,2023-12-18 09:15:50,15.08851443,0.0001542,53.2178,15.6943,87.1755,272.9413,0.00011733,1.58e-05,0.0,0 STARLINK-3601,1 51804U 22017AN  23352.38599949  .00001580  00000-0  11733-3 0  9993,2 51804  53.2178  15.6943 0001542  87.1755 272.9413 15.08851443101626,6917.845,95.437,540.777,538.644,0.0
51804.0,STARLINK-3601,PAYLOAD,2023-12-18 23:34:19,15.08836533,0.0001618,53.2184,13.0186,115.8983,244.2176,5.5681e-05,5.98e-06,0.0,0 STARLINK-3601,1 51804U 22017AN  23352.98216891  .00000598  00000-0  55681-4 0  9990,2 51804  53.2184  13.0186 0001618 115.8983 244.2176 15.08836533101711,6917.891,95.438,540.875,538.637,0.0
51804.0,STARLINK-3601,PAYLOAD,2023-12-19 09:06:38,15.08837907,0.0001435,53.2177,11.2338,93.3519,266.7637,6.5635e-05,7.57e-06,0.0,0 STARLINK-3601,1 51804U 22017AN  23353.37961073  .00000757  00000-0  65635-4 0  9990,2 51804  53.2177  11.2338 0001435  93.3519 266.7637 15.08837907101676,6917.887,95.438,540.745,538.759,0.0
51804.0,STARLINK-3601,PAYLOAD,2023-12-20 07:22:02,15.08843547,0.0001513,53.2177,7.0734,85.9901,274.1264,-2.4988e-05,-6.86e-06,0.0,0 STARLINK-3601,1 51804U 22017AN  23354.30697236 -.00000686  00000-0 -24988-4 0  9990,2 51804  53.2177   7.0734 0001513  85.9901 274.1264 15.08843547101911,6917.87,95.437,540.781,538.688,0.0
